SENTINEL-6              
1 46984U 20086A   24054.77230825 -.00000030  00000+0  13393-3 0  9991
2 46984  66.0400  88.9114 0007846 270.6520  89.3596 12.80931023152172
